ONEWEB-0318             
1 49104U 21075AF  25349.30681499  .00000009  00000+0 -87854-5 0  9992
2 49104  87.9181  11.9741 0001782 103.2045 256.9286 13.18686713212939
ONEWEB-0319             
1 49105U 21075AG  25349.18005726  .00000044  00000+0  80776-4 0  9995
2 49105  87.9110  42.4610 0001743 113.6929 246.4386 13.17650853209373
ONEWEB-0323             
1 49106U 21075AH  25349.38538874 -.00000249  00000+0 -72808-3 0  9998
2 49106  87.8939  27.1553 0001694 119.5685 240.5612 13.12433092210443
ONEWEB-0329             
1 49107U 21075AJ  25349.18850998 -.00000003  00000+0 -42114-4 0  9997
2 49107  87.9107  42.4608 0001669 103.2553 256.8765 13.17648460209358
ONEWEB-0330             
1 49108U 21075AK  25349.18933968  .00000024  00000+0  27909-4 0  9993
2 49108  87.9109  42.4666 0001518  99.5687 260.5616 13.17650110209399
ONEWEB-0292             
1 49186U 21083A   25349.27283820 -.00000109  00000+0 -33328-3 0  9990
2 49186  87.8970 356.8132 0001745  96.5338 263.5990 13.13471642206787
ONEWEB-0303             
1 49187U 21083B   25349.30352014  .00000008  00000+0 -12079-4 0  9995
2 49187  87.9183  11.9763 0001798  99.6260 260.5076 13.18686750205740
ONEWEB-0306             
1 49188U 21083C   25349.36949839  .00000066  00000+0  13483-3 0  9991
2 49188  87.9180  11.9477 0001788  86.7715 273.3622 13.18686590205797
ONEWEB-0307             
1 49189U 21083D   25349.26692257  .00000081  00000+0  18715-3 0  9990
2 49189  87.8966 356.8056 0001771  91.3924 268.7409 13.13470409206785
ONEWEB-0320             
1 49190U 21083E   25349.14929794 -.00000001  00000+0 -35589-4 0  9991
2 49190  87.9175  12.0204 0001755  93.4907 266.6426 13.18687065205724
ONEWEB-0321             
1 49191U 21083F   25349.26345338 -.00000006  00000+0 -46220-4 0  9990
2 49191  87.9207 311.1145 0001923  73.3087 286.8257 13.20771477212550
ONEWEB-0322             
1 49192U 21083G   25349.26268807  .00000205  00000+0  52588-3 0  9998
2 49192  87.8971 356.8088 0002055  78.8968 281.2392 13.13470965206771
ONEWEB-0324             
1 49193U 21083H   25349.36289641  .00000156  00000+0  36207-3 0  9994
2 49193  87.9179  11.9557 0001649  93.2283 266.9038 13.18686350205770
ONEWEB-0325             
1 49194U 21083J   25349.13856880 -.00000023  00000+0 -91730-4 0  9993
2 49194  87.9181  12.0193 0001820  92.6264 267.5077 13.18687187205752
ONEWEB-0326             
1 49195U 21083K   25349.30530787 -.00000013  00000+0 -64642-4 0  9999
2 49195  87.9180  11.9734 0001917 103.3106 256.8240 13.18686182205761
ONEWEB-0327             
1 49196U 21083L   25349.30502580  .00000026  00000+0  32437-4 0  9999
2 49196  87.9172  11.9925 0002028 102.4448 257.6911 13.18686958205785
ONEWEB-0328             
1 49197U 21083M   25349.32870350  .00000388  00000+0  10274-2 0  9999
2 49197  87.8985 356.7437 0001599  90.9536 269.1777 13.13471789206762
