[{"OBJECT_NAME":"ONEWEB-0318","OBJECT_ID":"2021-075AF","EPOCH":"2025-12-15T07:21:48.815136","MEAN_MOTION":13.18686713,"ECCENTRICITY":0.00017824,"INCLINATION":87.9181,"RA_OF_ASC_NODE":11.9741,"ARG_OF_PERICENTER":103.2045,"MEAN_ANOMALY":256.9286,"EPHEMERIS_TYPE":0,"CLASSIFICATION_TYPE":"U","NORAD_CAT_ID":49104,"ELEMENT_SET_NO":999,"REV_AT_EPOCH":21293,"BSTAR":-8.785355e-6,"MEAN_MOTION_DOT":9.0e-8,"MEAN_MOTION_DDOT":0},{"OBJECT_NAME":"ONEWEB-0319","OBJECT_ID":"2021-075AG","EPOCH":"2025-12-15T04:19:16.947264","MEAN_MOTION":13.17650853,"ECCENTRICITY":0.00017439,"INCLINATION":87.911,"RA_OF_ASC_NODE":42.461,"ARG_OF_PERICENTER":113.6929,"MEAN_ANOMALY":246.4386,"EPHEMERIS_TYPE":0,"CLASSIFICATION_TYPE":"U","NORAD_CAT_ID":49105,"ELEMENT_SET_NO":999,"REV_AT_EPOCH":20937,"BSTAR":8.0776003e-5,"MEAN_MOTION_DOT":4.4e-7,"MEAN_MOTION_DDOT":0},{"OBJECT_NAME":"ONEWEB-0323","OBJECT_ID":"2021-075AH","EPOCH":"2025-12-15T09:14:57.587136","MEAN_MOTION":13.12433092,"ECCENTRICITY":0.00016943,"INCLINATION":87.8939,"RA_OF_ASC_NODE":27.1553,"ARG_OF_PERICENTER":119.5685,"MEAN_ANOMALY":240.5612,"EPHEMERIS_TYPE":0,"CLASSIFICATION_TYPE":"U","NORAD_CAT_ID":49106,"ELEMENT_SET_NO":999,"REV_AT_EPOCH":21044,"BSTAR":-0.00072808463,"MEAN_MOTION_DOT":-2.49e-6,"MEAN_MOTION_DDOT":0},{"OBJECT_NAME":"ONEWEB-0329","OBJECT_ID":"2021-075AJ","EPOCH":"2025-12-15T04:31:27.262272","MEAN_MOTION":13.1764846,"ECCENTRICITY":0.00016696,"INCLINATION":87.9107,"RA_OF_ASC_NODE":42.4608,"ARG_OF_PERICENTER":103.2553,"MEAN_ANOMALY":256.8765,"EPHEMERIS_TYPE":0,"CLASSIFICATION_TYPE":"U","NORAD_CAT_ID":49107,"ELEMENT_SET_NO":999,"REV_AT_EPOCH":20935,"BSTAR":-4.2113529e-5,"MEAN_MOTION_DOT":-3.0e-8,"MEAN_MOTION_DDOT":0},{"OBJECT_NAME":"ONEWEB-0330","OBJECT_ID":"2021-075AK","EPOCH":"2025-12-15T04:32:38.948352","MEAN_MOTION":13.1765011,"ECCENTRICITY":0.00015188,"INCLINATION":87.9109,"RA_OF_ASC_NODE":42.4666,"ARG_OF_PERICENTER":99.5687,"MEAN_ANOMALY":260.5616,"EPHEMERIS_TYPE":0,"CLASSIFICATION_TYPE":"U","NORAD_CAT_ID":49108,"ELEMENT_SET_NO":999,"REV_AT_EPOCH":20939,"BSTAR":2.7909495e-5,"MEAN_MOTION_DOT":2.4e-7,"MEAN_MOTION_DDOT":0},{"OBJECT_NAME":"ONEWEB-0292","OBJECT_ID":"2021-083A","EPOCH":"2025-12-15T06:32:53.220480","MEAN_MOTION":13.13471642,"ECCENTRICITY":0.00017453,"INCLINATION":87.897,"RA_OF_ASC_NODE":356.8132,"ARG_OF_PERICENTER":96.5338,"MEAN_ANOMALY":263.599,"EPHEMERIS_TYPE":0,"CLASSIFICATION_TYPE":"U","NORAD_CAT_ID":49186,"ELEMENT_SET_NO":999,"REV_AT_EPOCH":20678,"BSTAR":-0.00033328493,"MEAN_MOTION_DOT":-1.09e-6,"MEAN_MOTION_DDOT":0},{"OBJECT_NAME":"ONEWEB-0303","OBJECT_ID":"2021-083B","EPOCH":"2025-12-15T07:17:04.140096","MEAN_MOTION":13.1868675,"ECCENTRICITY":0.00017982,"INCLINATION":87.9183,"RA_OF_ASC_NODE":11.9763,"ARG_OF_PERICENTER":99.626,"MEAN_ANOMALY":260.5076,"EPHEMERIS_TYPE":0,"CLASSIFICATION_TYPE":"U","NORAD_CAT_ID":49187,"ELEMENT_SET_NO":999,"REV_AT_EPOCH":20574,"BSTAR":-1.2078565e-5,"MEAN_MOTION_DOT":8.0e-8,"MEAN_MOTION_DDOT":0},{"OBJECT_NAME":"ONEWEB-0306","OBJECT_ID":"2021-083C","EPOCH":"2025-12-15T08:52:04.660896","MEAN_MOTION":13.1868659,"ECCENTRICITY":0.00017884,"INCLINATION":87.918,"RA_OF_ASC_NODE":11.9477,"ARG_OF_PERICENTER":86.7715,"MEAN_ANOMALY":273.3622,"EPHEMERIS_TYPE":0,"CLASSIFICATION_TYPE":"U","NORAD_CAT_ID":49188,"ELEMENT_SET_NO":999,"REV_AT_EPOCH":20579,"BSTAR":0.00013482595,"MEAN_MOTION_DOT":6.6e-7,"MEAN_MOTION_DDOT":0},{"OBJECT_NAME":"ONEWEB-0307","OBJECT_ID":"2021-083D","EPOCH":"2025-12-15T06:24:22.110048","MEAN_MOTION":13.13470409,"ECCENTRICITY":0.00017719,"INCLINATION":87.8966,"RA_OF_ASC_NODE":356.8056,"ARG_OF_PERICENTER":91.3924,"MEAN_ANOMALY":268.7409,"EPHEMERIS_TYPE":0,"CLASSIFICATION_TYPE":"U","NORAD_CAT_ID":49189,"ELEMENT_SET_NO":999,"REV_AT_EPOCH":20678,"BSTAR":0.0001871469,"MEAN_MOTION_DOT":8.1e-7,"MEAN_MOTION_DDOT":0},{"OBJECT_NAME":"ONEWEB-0320","OBJECT_ID":"2021-083E","EPOCH":"2025-12-15T03:34:59.342016","MEAN_MOTION":13.18687065,"ECCENTRICITY":0.00017556,"INCLINATION":87.9175,"RA_OF_ASC_NODE":12.0204,"ARG_OF_PERICENTER":93.4907,"MEAN_ANOMALY":266.6426,"EPHEMERIS_TYPE":0,"CLASSIFICATION_TYPE":"U","NORAD_CAT_ID":49190,"ELEMENT_SET_NO":999,"REV_AT_EPOCH":20572,"BSTAR":-3.5588714e-5,"MEAN_MOTION_DOT":-1.0e-8,"MEAN_MOTION_DDOT":0},{"OBJECT_NAME":"ONEWEB-0321","OBJECT_ID":"2021-083F","EPOCH":"2025-12-15T06:19:22.372032","MEAN_MOTION":13.20771477,"ECCENTRICITY":0.00019231,"INCLINATION":87.9207,"RA_OF_ASC_NODE":311.1145,"ARG_OF_PERICENTER":73.3087,"MEAN_ANOMALY":286.8257,"EPHEMERIS_TYPE":0,"CLASSIFICATION_TYPE":"U","NORAD_CAT_ID":49191,"ELEMENT_SET_NO":999,"REV_AT_EPOCH":21255,"BSTAR":-4.6220394e-5,"MEAN_MOTION_DOT":-6.0e-8,"MEAN_MOTION_DDOT":0},{"OBJECT_NAME":"ONEWEB-0322","OBJECT_ID":"2021-083G","EPOCH":"2025-12-15T06:18:16.249248","MEAN_MOTION":13.13470965,"ECCENTRICITY":0.00020556,"INCLINATION":87.8971,"RA_OF_ASC_NODE":356.8088,"ARG_OF_PERICENTER":78.8968,"MEAN_ANOMALY":281.2392,"EPHEMERIS_TYPE":0,"CLASSIFICATION_TYPE":"U","NORAD_CAT_ID":49192,"ELEMENT_SET_NO":999,"REV_AT_EPOCH":20677,"BSTAR":0.00052588291,"MEAN_MOTION_DOT":2.05e-6,"MEAN_MOTION_DDOT":0},{"OBJECT_NAME":"ONEWEB-0324","OBJECT_ID":"2021-083H","EPOCH":"2025-12-15T08:42:34.249824","MEAN_MOTION":13.1868635,"ECCENTRICITY":0.00016499,"INCLINATION":87.9179,"RA_OF_ASC_NODE":11.9557,"ARG_OF_PERICENTER":93.2283,"MEAN_ANOMALY":266.9038,"EPHEMERIS_TYPE":0,"CLASSIFICATION_TYPE":"U","NORAD_CAT_ID":49193,"ELEMENT_SET_NO":999,"REV_AT_EPOCH":20577,"BSTAR":0.000362075,"MEAN_MOTION_DOT":1.56e-6,"MEAN_MOTION_DDOT":0},{"OBJECT_NAME":"ONEWEB-0325","OBJECT_ID":"2021-083J","EPOCH":"2025-12-15T03:19:32.344320","MEAN_MOTION":13.18687187,"ECCENTRICITY":0.00018202,"INCLINATION":87.9181,"RA_OF_ASC_NODE":12.0193,"ARG_OF_PERICENTER":92.6264,"MEAN_ANOMALY":267.5077,"EPHEMERIS_TYPE":0,"CLASSIFICATION_TYPE":"U","NORAD_CAT_ID":49194,"ELEMENT_SET_NO":999,"REV_AT_EPOCH":20575,"BSTAR":-9.1729642e-5,"MEAN_MOTION_DOT":-2.3e-7,"MEAN_MOTION_DDOT":0},{"OBJECT_NAME":"ONEWEB-0326","OBJECT_ID":"2021-083K","EPOCH":"2025-12-15T07:19:38.599968","MEAN_MOTION":13.18686182,"ECCENTRICITY":0.00019172,"INCLINATION":87.918,"RA_OF_ASC_NODE":11.9734,"ARG_OF_PERICENTER":103.3106,"MEAN_ANOMALY":256.824,"EPHEMERIS_TYPE":0,"CLASSIFICATION_TYPE":"U","NORAD_CAT_ID":49195,"ELEMENT_SET_NO":999,"REV_AT_EPOCH":20576,"BSTAR":-6.4641581e-5,"MEAN_MOTION_DOT":-1.3e-7,"MEAN_MOTION_DDOT":0},{"OBJECT_NAME":"ONEWEB-0327","OBJECT_ID":"2021-083L","EPOCH":"2025-12-15T07:19:14.229120","MEAN_MOTION":13.18686958,"ECCENTRICITY":0.00020288,"INCLINATION":87.9172,"RA_OF_ASC_NODE":11.9925,"ARG_OF_PERICENTER":102.4448,"MEAN_ANOMALY":257.6911,"EPHEMERIS_TYPE":0,"CLASSIFICATION_TYPE":"U","NORAD_CAT_ID":49196,"ELEMENT_SET_NO":999,"REV_AT_EPOCH":20578,"BSTAR":3.2436711e-5,"MEAN_MOTION_DOT":2.6e-7,"MEAN_MOTION_DDOT":0},{"OBJECT_NAME":"ONEWEB-0328","OBJECT_ID":"2021-083M","EPOCH":"2025-12-15T07:53:19.982400","MEAN_MOTION":13.13471789,"ECCENTRICITY":0.00015999,"INCLINATION":87.8985,"RA_OF_ASC_NODE":356.7437,"ARG_OF_PERICENTER":90.9536,"MEAN_ANOMALY":269.1777,"EPHEMERIS_TYPE":0,"CLASSIFICATION_TYPE":"U","NORAD_CAT_ID":49197,"ELEMENT_SET_NO":999,"REV_AT_EPOCH":20676,"BSTAR":0.0010274241,"MEAN_MOTION_DOT":3.88e-6,"MEAN_MOTION_DDOT":0}]
